[{"OBJECT_NAME":"STARLINK-2222","OBJECT_ID":"2021-041V","EPOCH":"2026-03-09T11:45:16.353504","MEAN_MOTION":15.06409495,"ECCENTRICITY":0.00018787,"INCLINATION":53.0557,"RA_OF_ASC_NODE":142.5171,"ARG_OF_PERICENTER":98.5623,"MEAN_ANOMALY":261.5579,"EPHEMERIS_TYPE":0,"CLASSIFICATION_TYPE":"U","NORAD_CAT_ID":48572,"ELEMENT_SET_NO":999,"REV_AT_EPOCH":26503,"BSTAR":0.00016147723,"MEAN_MOTION_DOT":2.125e-5,"MEAN_MOTION_DDOT":0},{"OBJECT_NAME":"IRIDIUM 33 DEB","OBJECT_ID":"1997-051ACD","EPOCH":"2026-02-15T04:06:14.442336","MEAN_MOTION":15.0282309,"ECCENTRICITY":0.00183243,"INCLINATION":86.3384,"RA_OF_ASC_NODE":302.6959,"ARG_OF_PERICENTER":121.5358,"MEAN_ANOMALY":29.3036,"EPHEMERIS_TYPE":0,"CLASSIFICATION_TYPE":"U","NORAD_CAT_ID":46971,"ELEMENT_SET_NO":999,"REV_AT_EPOCH":65196,"BSTAR":0.0024316654,"MEAN_MOTION_DOT":0.00032805,"MEAN_MOTION_DDOT":0}]
